{
    "links": {
        "self": "http://www.neowsapp.com/rest/v1/neo/3631820?api_key=iIulBulltgU6a56xZRHN4H3l9WmuAYTsLGpBGhQ2"
    },
    "id": "3631820",
    "neo_reference_id": "3631820",
    "name": "(2013 EV27)",
    "designation": "2013 EV27",
    "nasa_jpl_url": "http://ssd.jpl.nasa.gov/sbdb.cgi?sstr=3631820",
    "absolute_magnitude_h": 27.0,
    "estimated_diameter": {
        "kilometers": {
            "estimated_diameter_min": 0.0105816886,
            "estimated_diameter_max": 0.023661375
        },
        "meters": {
            "estimated_diameter_min": 10.5816885933,
            "estimated_diameter_max": 23.6613750114
        },
        "miles": {
            "estimated_diameter_min": 0.0065751544,
            "estimated_diameter_max": 0.0147024923
        },
        "feet": {
            "estimated_diameter_min": 34.7168272045,
            "estimated_diameter_max": 77.6291855923
        }
    },
    "is_potentially_hazardous_asteroid": false,
    "close_approach_data": [
        {
            "close_approach_date": "2013-02-28",
            "close_approach_date_full": "2013-Feb-28 15:48",
            "epoch_date_close_approach": 1362066480000,
            "relative_velocity": {
                "kilometers_per_second": "12.5249314688",
                "kilometers_per_hour": "45089.7532875022",
                "miles_per_hour": "28017.0192024482"
            },
            "miss_distance": {
                "astronomical": "0.0077976068",
                "lunar": "3.0332690452",
                "kilometers": "1166505.368377516",
                "miles": "724832.8249650808"
            },
            "orbiting_body": "Earth"
        },
        {
            "close_approach_date": "2013-02-28",
            "close_approach_date_full": "2013-Feb-28 21:32",
            "epoch_date_close_approach": 1362087120000,
            "relative_velocity": {
                "kilometers_per_second": "12.8998256741",
                "kilometers_per_hour": "46439.3724265865",
                "miles_per_hour": "28855.6200502865"
            },
            "miss_distance": {
                "astronomical": "0.0084995722",
                "lunar": "3.3063335858",
                "kilometers": "1271517.897031214",
                "miles": "790084.5845061932"
            },
            "orbiting_body": "Moon"
        }
    ],
    "orbital_data": {
        "orbit_id": "5",
        "orbit_determination_date": "2017-04-06 08:46:33",
        "first_observation_date": "2013-03-05",
        "last_observation_date": "2013-03-14",
        "data_arc_in_days": 9,
        "observations_used": 13,
        "orbit_uncertainty": "8",
        "minimum_orbit_intersection": ".00187064",
        "jupiter_tisserand_invariant": "3.637",
        "epoch_osculation": "2456360.5",
        "eccentricity": ".5690219802064324",
        "semi_major_axis": "1.982365970644165",
        "inclination": "4.250578018828984",
        "ascending_node_longitude": "340.5390470941629",
        "orbital_period": "1019.469360447828",
        "perihelion_distance": ".854356160534376",
        "perihelion_argument": "126.8953811440305",
        "aphelion_distance": "3.110375780753955",
        "perihelion_time": "2456315.087940943263",
        "mean_anomaly": "16.03612810221574",
        "mean_motion": ".3531248843436167",
        "equinox": "J2000",
        "orbit_class": {
            "orbit_class_type": "APO",
            "orbit_class_description": "Near-Earth asteroid orbits which cross the Earth’s orbit similar to that of 1862 Apollo",
            "orbit_class_range": "a (semi-major axis) > 1.0 AU; q (perihelion) < 1.017 AU"
        }
    },
    "is_sentry_object": false
}